{"type": "FeatureCollection", "features": [ {"type": "Feature", "properties": {"norad_id": 34683, "name": "COSMOS 2251 DEB", "group": "cosmos-2251-debris", "lat": -59.213665252450824, "lon": 47.19606327829308, "alt_km": 688.6116738231813, "timestamp": "2025-12-21T05:44:51.982331+00:00", "meta": {"OBJECT_NAME": "COSMOS 2251 DEB", "OBJECT_ID": "1993-036YD", "EPOCH": "2025-12-20T15:57:48.625632", "MEAN_MOTION": 14.64579206, "ECCENTRICITY": 0.00177258, "INCLINATION": 74.0297, "RA_OF_ASC_NODE": 77.0284, "ARG_OF_PERICENTER": 191.9908, "MEAN_ANOMALY": 317.5627, "EPHEMERIS_TYPE": 0, "CLASSIFICATION_TYPE": "U", "NORAD_CAT_ID": 34683, "ELEMENT_SET_NO": 999, "REV_AT_EPOCH": 88464, "BSTAR": 0.00073577789, "MEAN_MOTION_DOT": 3.886e-05, "MEAN_MOTION_DDOT": 0}, "tle": {"line1": "1 34683U 93036YD  25354.66514613  .00003886  00000+0  73578-3 0  9993", "line2": "2 34683  74.0297  77.0284 0017725 191.9908 317.5627 14.64579206884647"}}, "geometry": {"type": "Point", "coordinates": [47.19606327829308, -59.213665252450824]}}, {"type": "Feature", "properties": {"norad_id": 34685, "name": "COSMOS 2251 DEB", "group": "cosmos-2251-debris", "lat": -50.45959882287646, "lon": -27.079931687052518, "alt_km": 697.502353950129, "timestamp": "2025-12-21T05:44:51.982340+00:00", "meta": {"OBJECT_NAME": "COSMOS 2251 DEB", "OBJECT_ID": "1993-036YF", "EPOCH": "2025-12-20T10:49:15.151584", "MEAN_MOTION": 14.57569023, "ECCENTRICITY": 0.00142669, "INCLINATION": 74.0291, "RA_OF_ASC_NODE": 134.1204, "ARG_OF_PERICENTER": 238.8452, "MEAN_ANOMALY": 178.0302, "EPHEMERIS_TYPE": 0, "CLASSIFICATION_TYPE": "U", "NORAD_CAT_ID": 34685, "ELEMENT_SET_NO": 999, "REV_AT_EPOCH": 88644, "BSTAR": 0.00066846808, "MEAN_MOTION_DOT": 3.019e-05, "MEAN_MOTION_DDOT": 0}, "tle": {"line1": "1 34685U 93036YF  25354.45086981  .00003019  00000+0  66847-3 0  9993", "line2": "2 34685  74.0291 134.1204 0014266 238.8452 178.0302 14.57569023886440"}}, "geometry": {"type": "Point", "coordinates": [-27.079931687052518, -50.45959882287646]}}, {"type": "Feature", "properties": {"norad_id": 34689, "name": "COSMOS 2251 DEB", "group": "cosmos-2251-debris", "lat": -66.79974211877712, "lon": 70.33136784859725, "alt_km": 732.1501063016722, "timestamp": "2025-12-21T05:44:51.982351+00:00", "meta": {"OBJECT_NAME": "COSMOS 2251 DEB", "OBJECT_ID": "1993-036YK", "EPOCH": "2025-12-15T15:20:16.539648", "MEAN_MOTION": 14.04491905, "ECCENTRICITY": 0.02275051, "INCLINATION": 74.0901, "RA_OF_ASC_NODE": 218.3502, "ARG_OF_PERICENTER": 286.6099, "MEAN_ANOMALY": 101.262, "EPHEMERIS_TYPE": 0, "CLASSIFICATION_TYPE": "U", "NORAD_CAT_ID": 34689, "ELEMENT_SET_NO": 999, "REV_AT_EPOCH": 84382, "BSTAR": 0.0020174062, "MEAN_MOTION_DOT": 4.031e-05, "MEAN_MOTION_DDOT": 0}, "tle": {"line1": "1 34689U 93036YK  25349.63908032  .00004031  00000+0  20174-2 0  9998", "line2": "2 34689  74.0901 218.3502 0227505 286.6099 101.2620 14.04491905843829"}}, "geometry": {"type": "Point", "coordinates": [70.33136784859725, -66.79974211877712]}}, {"type": "Feature", "properties": {"norad_id": 34721, "name": "COSMOS 2251 DEB", "group": "cosmos-2251-debris", "lat": 48.881225912612074, "lon": -29.207995530569388, "alt_km": 1054.7191339699475, "timestamp": "2025-12-21T05:44:51.982361+00:00", "meta": {"OBJECT_NAME": "COSMOS 2251 DEB", "OBJECT_ID": "1993-036YP", "EPOCH": "2025-12-19T22:50:41.702784", "MEAN_MOTION": 13.96880423, "ECCENTRICITY": 0.0223098, "INCLINATION": 73.9231, "RA_OF_ASC_NODE": 313.7346, "ARG_OF_PERICENTER": 251.3855, "MEAN_ANOMALY": 166.8871, "EPHEMERIS_TYPE": 0, "CLASSIFICATION_TYPE": "U", "NORAD_CAT_ID": 34721, "ELEMENT_SET_NO": 999, "REV_AT_EPOCH": 85250, "BSTAR": 0.00080586, "MEAN_MOTION_DOT": 1.358e-05, "MEAN_MOTION_DDOT": 0}, "tle": {"line1": "1 34721U 93036YP  25353.95187156  .00001358  00000+0  80586-3 0  9994", "line2": "2 34721  73.9231 313.7346 0223098 251.3855 166.8871 13.96880423852505"}}, "geometry": {"type": "Point", "coordinates": [-29.207995530569388, 48.881225912612074]}}, {"type": "Feature", "properties": {"norad_id": 34722, "name": "COSMOS 2251 DEB", "group": "cosmos-2251-debris", "lat": 18.093664685283823, "lon": -33.66839035240971, "alt_km": 935.330013393318, "timestamp": "2025-12-21T05:44:51.982371+00:00", "meta": {"OBJECT_NAME": "COSMOS 2251 DEB", "OBJECT_ID": "1993-036YQ", "EPOCH": "2025-12-20T21:18:16.861824", "MEAN_MOTION": 14.11957143, "ECCENTRICITY": 0.0166722, "INCLINATION": 73.873, "RA_OF_ASC_NODE": 321.5344, "ARG_OF_PERICENTER": 245.6675, "MEAN_ANOMALY": 144.4156, "EPHEMERIS_TYPE": 0, "CLASSIFICATION_TYPE": "U", "NORAD_CAT_ID": 34722, "ELEMENT_SET_NO": 999, "REV_AT_EPOCH": 86360, "BSTAR": 0.00053647941, "MEAN_MOTION_DOT": 1.092e-05, "MEAN_MOTION_DDOT": 0}, "tle": {"line1": "1 34722U 93036YQ  25354.88769516  .00001092  00000+0  53648-3 0  9998", "line2": "2 34722  73.8730 321.5344 0166722 245.6675 144.4156 14.11957143863603"}}, "geometry": {"type": "Point", "coordinates": [-33.66839035240971, 18.093664685283823]}}, {"type": "Feature", "properties": {"norad_id": 34726, "name": "COSMOS 2251 DEB", "group": "cosmos-2251-debris", "lat": 55.27348507395068, "lon": -5.48345626177439, "alt_km": 674.0209242819146, "timestamp": "2025-12-21T05:44:51.982381+00:00", "meta": {"OBJECT_NAME": "COSMOS 2251 DEB", "OBJECT_ID": "1993-036YU", "EPOCH": "2025-12-20T01:30:48.577536", "MEAN_MOTION": 14.59507497, "ECCENTRICITY": 0.0041772, "INCLINATION": 74.0281, "RA_OF_ASC_NODE": 332.3531, "ARG_OF_PERICENTER": 120.7631, "MEAN_ANOMALY": 239.7658, "EPHEMERIS_TYPE": 0, "CLASSIFICATION_TYPE": "U", "NORAD_CAT_ID": 34726, "ELEMENT_SET_NO": 999, "REV_AT_EPOCH": 88609, "BSTAR": 0.00028430628, "MEAN_MOTION_DOT": 1.336e-05, "MEAN_MOTION_DDOT": 0}, "tle": {"line1": "1 34726U 93036YU  25354.06306224  .00001336  00000+0  28431-3 0  9998", "line2": "2 34726  74.0281 332.3531 0041772 120.7631 239.7658 14.59507497886099"}}, "geometry": {"type": "Point", "coordinates": [-5.48345626177439, 55.27348507395068]}}, {"type": "Feature", "properties": {"norad_id": 34728, "name": "COSMOS 2251 DEB", "group": "cosmos-2251-debris", "lat": -68.30059447790669, "lon": -170.82983960346087, "alt_km": 672.8276924416414, "timestamp": "2025-12-21T05:44:51.982397+00:00", "meta": {"OBJECT_NAME": "COSMOS 2251 DEB", "OBJECT_ID": "1993-036YW", "EPOCH": "2025-12-20T02:20:18.568032", "MEAN_MOTION": 14.70905998, "ECCENTRICITY": 0.00414013, "INCLINATION": 74.0163, "RA_OF_ASC_NODE": 237.4676, "ARG_OF_PERICENTER": 33.08, "MEAN_ANOMALY": 327.2947, "EPHEMERIS_TYPE": 0, "CLASSIFICATION_TYPE": "U", "NORAD_CAT_ID": 34728, "ELEMENT_SET_NO": 999, "REV_AT_EPOCH": 88908, "BSTAR": 0.00043281985, "MEAN_MOTION_DOT": 2.653e-05, "MEAN_MOTION_DDOT": 0}, "tle": {"line1": "1 34728U 93036YW  25354.09743713  .00002653  00000+0  43282-3 0  9995", "line2": "2 34728  74.0163 237.4676 0041401  33.0800 327.2947 14.70905998889085"}}, "geometry": {"type": "Point", "coordinates": [-170.82983960346087, -68.30059447790669]}}, {"type": "Feature", "properties": {"norad_id": 34729, "name": "COSMOS 2251 DEB", "group": "cosmos-2251-debris", "lat": -50.5088010397818, "lon": -38.76074731168011, "alt_km": 633.5364240339823, "timestamp": "2025-12-21T05:44:51.982407+00:00", "meta": {"OBJECT_NAME": "COSMOS 2251 DEB", "OBJECT_ID": "1993-036YX", "EPOCH": "2025-12-20T07:36:17.277696", "MEAN_MOTION": 14.82993666, "ECCENTRICITY": 0.00118616, "INCLINATION": 74.0176, "RA_OF_ASC_NODE": 343.4186, "ARG_OF_PERICENTER": 98.0179, "MEAN_ANOMALY": 325.0807, "EPHEMERIS_TYPE": 0, "CLASSIFICATION_TYPE": "U", "NORAD_CAT_ID": 34729, "ELEMENT_SET_NO": 999, "REV_AT_EPOCH": 88570, "BSTAR": 0.0012365991, "MEAN_MOTION_DOT": 0.00010042, "MEAN_MOTION_DDOT": 0}, "tle": {"line1": "1 34729U 93036YX  25354.31686664  .00010042  00000+0  12366-2 0  9991", "line2": "2 34729  74.0176 343.4186 0011861  98.0179 325.0807 14.82993666885709"}}, "geometry": {"type": "Point", "coordinates": [-38.76074731168011, -50.5088010397818]}}, {"type": "Feature", "properties": {"norad_id": 34732, "name": "COSMOS 2251 DEB", "group": "cosmos-2251-debris", "lat": 15.61154528552228, "lon": -107.2810215546825, "alt_km": 721.7888806649171, "timestamp": "2025-12-21T05:44:51.982417+00:00", "meta": {"OBJECT_NAME": "COSMOS 2251 DEB", "OBJECT_ID": "1993-036ZA", "EPOCH": "2025-12-20T22:53:23.080704", "MEAN_MOTION": 14.47309029, "ECCENTRICITY": 0.00402251, "INCLINATION": 74.0457, "RA_OF_ASC_NODE": 77.8375, "ARG_OF_PERICENTER": 227.3149, "MEAN_ANOMALY": 248.485, "EPHEMERIS_TYPE": 0, "CLASSIFICATION_TYPE": "U", "NORAD_CAT_ID": 34732, "ELEMENT_SET_NO": 999, "REV_AT_EPOCH": 88262, "BSTAR": 9.9089235e-05, "MEAN_MOTION_DOT": 3.38e-06, "MEAN_MOTION_DDOT": 0}, "tle": {"line1": "1 34732U 93036ZA  25354.95373936  .00000338  00000+0  99089-4 0  9996", "line2": "2 34732  74.0457  77.8375 0040225 227.3149 248.4850 14.47309029882622"}}, "geometry": {"type": "Point", "coordinates": [-107.2810215546825, 15.61154528552228]}}, {"type": "Feature", "properties": {"norad_id": 34736, "name": "COSMOS 2251 DEB", "group": "cosmos-2251-debris", "lat": -46.223092239930814, "lon": -145.06817975548725, "alt_km": 412.4823531265156, "timestamp": "2025-12-21T05:44:51.982427+00:00", "meta": {"OBJECT_NAME": "COSMOS 2251 DEB", "OBJECT_ID": "1993-036ZE", "EPOCH": "2025-12-20T11:46:33.395520", "MEAN_MOTION": 15.54176498, "ECCENTRICITY": 0.00145074, "INCLINATION": 73.9985, "RA_OF_ASC_NODE": 19.1611, "ARG_OF_PERICENTER": 340.8808, "MEAN_ANOMALY": 19.186, "EPHEMERIS_TYPE": 0, "CLASSIFICATION_TYPE": "U", "NORAD_CAT_ID": 34736, "ELEMENT_SET_NO": 999, "REV_AT_EPOCH": 88568, "BSTAR": 0.0064099865, "MEAN_MOTION_DOT": 0.00442855, "MEAN_MOTION_DDOT": 0}, "tle": {"line1": "1 34736U 93036ZE  25354.49066430  .00442855  00000+0  64100-2 0  9995", "line2": "2 34736  73.9985  19.1611 0014507 340.8808  19.1860 15.54176498885683"}}, "geometry": {"type": "Point", "coordinates": [-145.06817975548725, -46.223092239930814]}}]}